STARLINK-37641          
1 69445U 26127C   26183.70543657  .00206086  00000+0  13146-2 0  9991
2 69445  53.1573 185.0785 0001755  71.5472 288.5739 15.75264357  3855
STARLINK-37522          
1 69446U 26127D   26183.46527002  .00160123  00000+0  10268-2 0  9994
2 69446  53.1597 186.4301 0001193  88.4980 271.6177 15.75289113  3810
STARLINK-37640          
1 69447U 26127E   26183.81871415  .00194960  00000+0  12439-2 0  9992
2 69447  53.1591 184.3578 0000961  12.8815 347.2230 15.75294625  3878
STARLINK-37572          
1 69448U 26127F   26183.71030400  .00174045  00000+0  11132-2 0  9994
2 69448  53.1587 185.1100 0001313  96.0218 264.0952 15.75302675  3857
STARLINK-37643          
1 69449U 26127G   26183.39761693  .00192576  00000+0  12298-2 0  9997
2 69449  53.1595 186.7169 0001596  82.4022 277.7180 15.75280533  3801
STARLINK-37601          
1 69450U 26127H   26183.52417785  .00164873  00000+0  10567-2 0  9990
2 69450  53.1597 186.0833 0001360 105.1460 254.9711 15.75285569  3827
STARLINK-37578          
1 69451U 26127J   26183.57400845  .00156592  00000+0  10046-2 0  9996
2 69451  53.1560 185.6765 0001546  65.4366 294.6815 15.75290967  3831
STARLINK-37577          
1 69452U 26127K   26183.56038830  .00148369  00000+0  95286-3 0  9990
2 69452  53.1589 185.5858 0001466 141.9532 218.1592 15.75294288  3834
STARLINK-37500          
1 69453U 26127L   26182.74498827  .00242862  00000+0  15387-2 0  9992
2 69453  53.1567 189.7477 0001909  82.6122 277.5115 15.75308584  3703
STARLINK-37575          
1 69454U 26127M   26183.55618469  .00191432  00000+0  12225-2 0  9993
2 69454  53.1594 185.5583 0001547  66.5930 293.5253 15.75283140  3837
STARLINK-37642          
1 69455U 26127N   26183.57433311  .00196634  00000+0  12534-2 0  9999
2 69455  53.1561 185.6774 0001012  94.5736 265.5400 15.75311187  3833
STARLINK-37513          
1 69456U 26127P   26183.46157442  .00213986  00000+0  10571-2 0  9995
2 69456  53.1565 185.6638 0000960 124.2271 235.8843 15.80954476  3823
STARLINK-37563          
1 69457U 26127Q   26184.41675926  .00032283  00000+0  21425-3 0  9994
2 69457  53.1596 181.3341 0001035  83.7379  93.6746 15.75207554  5257
STARLINK-37565          
1 69458U 26127R   26183.80509484  .00157276  00000+0  10088-2 0  9994
2 69458  53.1586 184.2624 0000845 124.3133 235.7968 15.75292395  3879
STARLINK-37498          
1 69459U 26127S   26183.56946947  .00151278  00000+0  97117-3 0  9992
2 69459  53.1564 185.6441 0001672 104.2356 255.8850 15.75293002  3836
STARLINK-37384          
1 69460U 26127T   26183.49240473  .00181812  00000+0  11616-2 0  9993
2 69460  53.1592 185.8697 0001189 125.6835 234.4296 15.75304734  3827
STARLINK-37707          
1 69461U 26127U   26183.80542332  .00189534  00000+0  12092-2 0  9996
2 69461  53.1591 184.2640 0001225 115.5928 244.5219 15.75313454  3871
STARLINK-37525          
1 69462U 26127V   26183.80055311  .00172762  00000+0  11043-2 0  9993
2 69462  53.1577 184.2315 0000999 110.1435 249.9693 15.75321042  3873
STARLINK-37526          
1 69463U 26127W   26183.47912049  .00179125  00000+0  11457-2 0  9996
2 69463  53.1571 185.7800 0001228 115.8813 244.2334 15.75286618  3825
STARLINK-37574          
1 69464U 26127X   26183.80088345  .00207675  00000+0  13211-2 0  9999
2 69464  53.1578 184.2321 0000426  69.4397 290.6669 15.75321347  3875
STARLINK-37535          
1 69465U 26127Y   26183.47878877  .00137898  00000+0  88709-3 0  9994
2 69465  53.1569 185.7758 0001622 108.9546 251.1650 15.75291901  3829
STARLINK-37583          
1 69466U 26127Z   26183.70566692  .00197314  00000+0  12578-2 0  9999
2 69466  53.1589 184.3352 0000754 100.8445 259.2660 15.75306529  3868
STARLINK-37546          
1 69467U 26127AA  26183.72836150  .00181296  00000+0  11580-2 0  9995
2 69467  53.1568 184.4842 0001318  92.1851 267.9320 15.75310536  3864
STARLINK-37532          
1 69468U 26127AB  26184.41675926  .00013159  00000+0  89963-4 0  9999
2 69468  53.1597 180.6428 0001163  75.6195  76.5898 15.75216418  5253
STARLINK-37708          
1 69469U 26127AC  26183.72803209  .00178807  00000+0  11425-2 0  9998
2 69469  53.1568 184.4811 0001064  90.2048 269.9094 15.75311770  3868
STARLINK-37686          
1 69470U 26127AD  26183.59692809  .00107881  00000+0  69776-3 0  9994
2 69470  53.1580 185.0840 0000900 108.8842 251.2276 15.75279102  3845
STARLINK-37451          
1 69471U 26127AE  26183.80825302  .00321513  00000+0  15654-2 0  9990
2 69471  53.1572 183.5426 0001043  96.2791 263.8350 15.80972020  3883
DTC TEST OBJECT A       
1 69472U 26128A   26184.42067499  .00021665  00000+0  34351-3 0  9997
2 69472  55.0003 230.0426 0010207 339.8464  20.2166 15.53337395  3753
DTC TEST OBJECT B       
1 69473U 26128B   26178.37654890  .00024134  00000+0  33565-3 0  9992
2 69473  55.0021 257.9040 0009934 325.3113  34.7274 15.56860342  2801
TJS-25                  
1 69474U 26129A   26184.46865174 -.00000358  00000+0  00000+0 0  9997
2 69474   5.9671 330.2835 0002547 287.0335 313.1415  1.00269920   221
