OBJECT_NAME,OBJECT_ID,EPOCH,MEAN_MOTION,ECCENTRICITY,INCLINATION,RA_OF_ASC_NODE,ARG_OF_PERICENTER,MEAN_ANOMALY,EPHEMERIS_TYPE,CLASSIFICATION_TYPE,NORAD_CAT_ID,ELEMENT_SET_NO,REV_AT_EPOCH,BSTAR,MEAN_MOTION_DOT,MEAN_MOTION_DDOT
STARLINK-37641,2026-127C,2026-07-02T16:55:49.719648,15.75264357,.00017553,53.1573,185.0785,71.5472,288.5739,0,U,69445,999,385,.13145943E-2,.206086E-2,0
STARLINK-37522,2026-127D,2026-07-02T11:09:59.329728,15.75289113,.0001193,53.1597,186.4301,88.4980,271.6177,0,U,69446,999,381,.10268E-2,.160123E-2,0
STARLINK-37640,2026-127E,2026-07-02T19:38:56.902560,15.75294625,.00009612,53.1591,184.3578,12.8815,347.2230,0,U,69447,999,387,.12438621E-2,.19496E-2,0
STARLINK-37572,2026-127F,2026-07-02T17:02:50.265600,15.75302675,.00013137,53.1587,185.1100,96.0218,264.0952,0,U,69448,999,385,.11132372E-2,.174045E-2,0
STARLINK-37643,2026-127G,2026-07-02T09:32:34.102752,15.75280533,.0001596,53.1595,186.7169,82.4022,277.7180,0,U,69449,999,380,.12298E-2,.192576E-2,0
STARLINK-37601,2026-127H,2026-07-02T12:34:48.966240,15.75285569,.000136,53.1597,186.0833,105.1460,254.9711,0,U,69450,999,382,.10567E-2,.164873E-2,0
STARLINK-37578,2026-127J,2026-07-02T13:46:34.330080,15.75290967,.0001546,53.1560,185.6765,65.4366,294.6815,0,U,69451,999,383,.10046E-2,.156592E-2,0
STARLINK-37577,2026-127K,2026-07-02T13:26:57.549120,15.75294288,.0001466,53.1589,185.5858,141.9532,218.1592,0,U,69452,999,383,.95286E-3,.148369E-2,0
STARLINK-37500,2026-127L,2026-07-01T17:52:46.986528,15.75308584,.00019092,53.1567,189.7477,82.6122,277.5115,0,U,69453,999,370,.15387157E-2,.242862E-2,0
STARLINK-37575,2026-127M,2026-07-02T13:20:54.357216,15.75283140,.0001547,53.1594,185.5583,66.5930,293.5253,0,U,69454,999,383,.12225E-2,.191432E-2,0
STARLINK-37642,2026-127N,2026-07-02T13:47:02.380704,15.75311187,.0001012,53.1561,185.6774,94.5736,265.5400,0,U,69455,999,383,.12534E-2,.196634E-2,0
STARLINK-37513,2026-127P,2026-07-02T11:04:40.029888,15.80954476,.000096,53.1565,185.6638,124.2271,235.8843,0,U,69456,999,382,.10571E-2,.213986E-2,0
STARLINK-37563,2026-127Q,2026-07-03T10:00:08.000064,15.75207554,.00010353,53.1596,181.3341,83.7379,93.6746,0,U,69457,999,525,.21425348E-3,.32283E-3,0
STARLINK-37565,2026-127R,2026-07-02T19:19:20.194176,15.75292395,.00008459,53.1586,184.2624,124.3133,235.7968,0,U,69458,999,387,.10088374E-2,.157276E-2,0
STARLINK-37498,2026-127S,2026-07-02T13:40:02.162208,15.75293002,.0001672,53.1564,185.6441,104.2356,255.8850,0,U,69459,999,383,.97117E-3,.151278E-2,0
STARLINK-37384,2026-127T,2026-07-02T11:49:03.768672,15.75304734,.0001189,53.1592,185.8697,125.6835,234.4296,0,U,69460,999,382,.11616E-2,.181812E-2,0
STARLINK-37707,2026-127U,2026-07-02T19:19:48.574848,15.75313454,.00012252,53.1591,184.2640,115.5928,244.5219,0,U,69461,999,387,.12091506E-2,.189534E-2,0
STARLINK-37525,2026-127V,2026-07-02T19:12:47.788704,15.75321042,.00009995,53.1577,184.2315,110.1435,249.9693,0,U,69462,999,387,.11043468E-2,.172762E-2,0
STARLINK-37526,2026-127W,2026-07-02T11:29:56.010336,15.75286618,.0001228,53.1571,185.7800,115.8813,244.2334,0,U,69463,999,382,.11457E-2,.179125E-2,0
STARLINK-37574,2026-127X,2026-07-02T19:13:16.330080,15.75321347,.00004264,53.1578,184.2321,69.4397,290.6669,0,U,69464,999,387,.13211479E-2,.207675E-2,0
STARLINK-37535,2026-127Y,2026-07-02T11:29:27.349728,15.75291901,.0001622,53.1569,185.7758,108.9546,251.1650,0,U,69465,999,382,.88709E-3,.137898E-2,0
STARLINK-37583,2026-127Z,2026-07-02T16:56:09.621888,15.75306529,.00007543,53.1589,184.3352,100.8445,259.2660,0,U,69466,999,386,.12578225E-2,.197314E-2,0
STARLINK-37546,2026-127AA,2026-07-02T17:28:50.433600,15.75310536,.00013185,53.1568,184.4842,92.1851,267.9320,0,U,69467,999,386,.11580492E-2,.181296E-2,0
STARLINK-37532,2026-127AB,2026-07-03T10:00:08.000064,15.75216418,.00011637,53.1597,180.6428,75.6195,76.5898,0,U,69468,999,525,.89963192E-4,.13159E-3,0
STARLINK-37708,2026-127AC,2026-07-02T17:28:21.972576,15.75311770,.00010642,53.1568,184.4811,90.2048,269.9094,0,U,69469,999,386,.11424845E-2,.178807E-2,0
STARLINK-37686,2026-127AD,2026-07-02T14:19:34.586976,15.75279102,.00009006,53.1580,185.0840,108.8842,251.2276,0,U,69470,999,384,.69776204E-3,.107881E-2,0
STARLINK-37451,2026-127AE,2026-07-02T19:23:53.060928,15.80972020,.0001043,53.1572,183.5426,96.2791,263.8350,0,U,69471,999,388,.1565414E-2,.321513E-2,0
DTC TEST OBJECT A,2026-128A,2026-07-03T10:05:46.319136,15.53337395,.00102074,55.0003,230.0426,339.8464,20.2166,0,U,69472,999,375,.34351283E-3,.21665E-3,0
DTC TEST OBJECT B,2026-128B,2026-06-27T09:02:13.824960,15.56860342,.0009934,55.0021,257.9040,325.3113,34.7274,0,U,69473,999,280,.3356545E-3,.24134E-3,0
TJS-25,2026-129A,2026-07-03T11:14:51.510336,1.00269920,.00025479,5.9671,330.2835,287.0335,313.1415,0,U,69474,999,22,0,-.358E-5,0
